NORAD_CAT_ID,OBJECT_NAME,OBJECT_TYPE,EPOCH,MEAN_MOTION,ECCENTRICITY,INCLINATION,RA_OF_ASC_NODE,ARG_OF_PERICENTER,MEAN_ANOMALY,BSTAR,MEAN_MOTION_DOT,MEAN_MOTION_DDOT,TLE_LINE0,TLE_LINE1,TLE_LINE2,SEMIMAJOR_AXIS,PERIOD,APOGEE,PERIGEE,DECAYED
51759.0,STARLINK-3456,PAYLOAD,2024-02-27 08:44:17,15.08833959,0.0001706,53.2182,37.0597,101.1064,259.012,-3.4071e-05,-8.3e-06,0.0,0 STARLINK-3456,1 51759U 22016AX  24058.36409136 -.00000830  00000-0 -34071-4 0  9991,2 51759  53.2182  37.0597 0001706 101.1064 259.0120 15.08833959111797,6917.899,95.438,540.944,538.584,0.0
51759.0,STARLINK-3456,PAYLOAD,2024-02-27 23:02:45,15.08839842,0.0001652,53.2193,34.383,99.2063,260.9116,-3.8012e-05,-8.93e-06,0.0,0 STARLINK-3456,1 51759U 22016AX  24058.96024924 -.00000893  00000-0 -38012-4 0  9993,2 51759  53.2193  34.3830 0001652  99.2063 260.9116 15.08839842111888,6917.881,95.438,540.889,538.603,0.0
51759.0,STARLINK-3456,PAYLOAD,2024-02-28 03:48:54,15.08842165,0.0001635,53.2196,33.4911,102.6622,257.4553,2.7932e-05,1.57e-06,0.0,0 STARLINK-3456,1 51759U 22016AX  24059.15896535  .00000157  00000-0  27932-4 0  9990,2 51759  53.2196  33.4911 0001635 102.6622 257.4553 15.08842165113051,6917.874,95.437,540.87,538.608,0.0
51759.0,STARLINK-3456,PAYLOAD,2024-02-28 05:24:17,15.08845408,0.0001625,53.2192,33.198,100.813,259.3045,4.1166e-05,3.67e-06,0.0,0 STARLINK-3456,1 51759U 22016AX  24059.22520311  .00000367  00000-0  41166-4 0  9992,2 51759  53.2192  33.1980 0001625 100.8130 259.3045 15.08845408111927,6917.864,95.437,540.853,538.605,0.0
51759.0,STARLINK-3456,PAYLOAD,2024-02-28 21:18:09,15.08831348,0.0001709,53.2204,30.2264,98.6411,261.4775,6.9562e-05,8.19e-06,0.0,0 STARLINK-3456,1 51759U 22016AX  24059.88761232  .00000819  00000-0  69562-4 0  9995,2 51759  53.2204  30.2264 0001709  98.6411 261.4775 15.08831348113163,6917.907,95.438,540.954,538.59,0.0
51759.0,STARLINK-3456,PAYLOAD,2024-02-29 14:47:24,15.08833835,0.0001777,53.219,26.9521,88.9363,271.1832,2.3274e-05,8.2e-07,0.0,0 STARLINK-3456,1 51759U 22016AX  24060.61625565  .00000082  00000-0  23274-4 0  9998,2 51759  53.2190  26.9521 0001777  88.9363 271.1832 15.08833835112139,6917.899,95.438,540.994,538.535,0.0
51759.0,STARLINK-3456,PAYLOAD,2024-03-01 03:30:29,15.08844012,0.0001693,53.2195,24.5748,94.5165,265.602,1.3807e-05,-6.8e-07,0.0,0 STARLINK-3456,1 51759U 22016AX  24061.14617013 -.00000068  00000-0  13807-4 0  9992,2 51759  53.2195  24.5748 0001693  94.5165 265.6020 15.08844012113350,6917.868,95.437,540.904,538.562,0.0
51759.0,STARLINK-3456,PAYLOAD,2024-03-01 06:41:15,15.08845339,0.000153,53.2184,23.9781,90.3411,269.7757,1.7203e-05,-1.4e-07,0.0,0 STARLINK-3456,1 51759U 22016AX  24061.27864869 -.00000014  00000-0  17203-4 0  9994,2 51759  53.2184  23.9781 0001530  90.3411 269.7757 15.08845339112237,6917.864,95.437,540.788,538.671,0.0
51759.0,STARLINK-3456,PAYLOAD,2024-03-01 14:38:10,15.0884369,0.0001538,53.2184,22.4902,87.1534,272.9634,3.5935e-05,2.84e-06,0.0,0 STARLINK-3456,1 51759U 22016AX  24061.60984815  .00000284  00000-0  35935-4 0  9995,2 51759  53.2184  22.4902 0001538  87.1534 272.9634 15.08843690112287,6917.869,95.437,540.798,538.67,0.0
51759.0,STARLINK-3456,PAYLOAD,2024-03-02 04:56:40,15.08794095,0.0001581,53.2199,19.8128,101.7454,258.3715,0.00070373,0.00010916,0.0,0 STARLINK-3456,1 51759U 22016AX  24062.20601886  .00010916  00000-0  70373-3 0  9993,2 51759  53.2199  19.8128 0001581 101.7454 258.3715 15.08794095113514,6918.021,95.44,540.979,538.792,0.0
51759.0,STARLINK-3456,PAYLOAD,2024-03-03 03:12:03,15.08840775,0.0001633,53.2196,15.6507,88.5864,271.5315,-1.8188e-05,-5.78e-06,0.0,0 STARLINK-3456,1 51759U 22016AX  24063.13337202 -.00000578  00000-0 -18188-4 0  9996,2 51759  53.2196  15.6507 0001633  88.5864 271.5315 15.08840775113656,6917.878,95.438,540.873,538.613,0.0
51759.0,STARLINK-3456,PAYLOAD,2024-03-03 20:41:17,15.08841252,0.0001663,53.2199,12.382,84.4151,275.703,2.2159e-05,6.5e-07,0.0,0 STARLINK-3456,1 51759U 22016AX  24063.86200992  .00000065  00000-0  22159-4 0  9993,2 51759  53.2199  12.3820 0001663  84.4151 275.7030 15.08841252112625,6917.877,95.437,540.892,538.591,0.0
51759.0,STARLINK-3456,PAYLOAD,2024-03-04 03:02:49,15.0885435,0.0001738,53.2207,11.1913,88.5823,271.5369,0.00011917,1.61e-05,0.0,0 STARLINK-3456,1 51759U 22016AX  24064.12695808  .00001610  00000-0  11917-3 0  9993,2 51759  53.2207  11.1913 0001738  88.5823 271.5369 15.08854350113802,6917.837,95.437,540.904,538.499,0.0
51759.0,STARLINK-3456,PAYLOAD,2024-03-04 06:13:35,15.08856686,0.0001743,53.2206,10.5933,91.1932,268.926,0.00013485,1.86e-05,0.0,0 STARLINK-3456,1 51759U 22016AX  24064.25943438  .00001860  00000-0  13485-3 0  9991,2 51759  53.2206  10.5933 0001743  91.1932 268.9260 15.08856686112682,6917.829,95.436,540.9,538.489,0.0
51759.0,STARLINK-3456,PAYLOAD,2024-03-05 02:53:37,15.08836981,0.0001513,53.2195,6.7278,108.4382,251.6775,9.6185e-06,-1.35e-06,0.0,0 STARLINK-3456,1 51759U 22016AX  24065.12056893 -.00000135  00000-0  96185-5 0  9993,2 51759  53.2195   6.7278 0001513 108.4382 251.6775 15.08836981113951,6917.89,95.438,540.801,538.708,0.0
51759.0,STARLINK-3456,PAYLOAD,2024-03-05 06:04:23,15.08837701,0.0001506,53.2195,6.1319,110.3129,249.8025,1.8353e-05,4e-08,0.0,0 STARLINK-3456,1 51759U 22016AX  24065.25304808  .00000004  00000-0  18353-4 0  9993,2 51759  53.2195   6.1319 0001506 110.3129 249.8025 15.08837701112838,6917.887,95.438,540.794,538.711,0.0
51759.0,STARLINK-3456,PAYLOAD,2024-03-05 12:25:56,15.08831032,0.0001363,53.2191,4.9411,86.0625,274.0523,-2.9272e-05,-7.54e-06,0.0,0 STARLINK-3456,1 51759U 22016AX  24065.51801510 -.00000754  00000-0 -29272-4 0  9990,2 51759  53.2191   4.9411 0001363  86.0625 274.0523 15.08831032114010,6917.908,95.438,540.716,538.83,0.0
51759.0,STARLINK-3456,PAYLOAD,2024-03-06 02:44:25,15.08835396,0.0001455,53.2196,2.2686,92.5935,267.5224,-0.00013569,-2.447e-05,0.0,0 STARLINK-3456,1 51759U 22016AX  24066.11418157 -.00002447  00000-0 -13569-3 0  9990,2 51759  53.2196   2.2686 0001455  92.5935 267.5224 15.08835396112962,6917.894,95.438,540.766,538.753,0.0
51759.0,STARLINK-3456,PAYLOAD,2024-03-07 02:35:11,15.08838754,0.0001365,53.2197,357.8145,98.3754,261.7393,6.4597e-05,7.4e-06,0.0,0 STARLINK-3456,1 51759U 22016AX  24067.10777676  .00000740  00000-0  64597-4 0  9994,2 51759  53.2197 357.8145 0001365  98.3754 261.7393 15.08838754114253,6917.884,95.438,540.693,538.805,0.0
51759.0,STARLINK-3456,PAYLOAD,2024-03-07 12:07:31,15.08832758,0.0001797,53.2195,356.0259,89.1475,270.9723,-4.3681e-05,-9.83e-06,0.0,0 STARLINK-3456,1 51759U 22016AX  24067.50522586 -.00000983  00000-0 -43681-4 0  9998,2 51759  53.2195 356.0259 0001797  89.1475 270.9723 15.08832758113172,6917.903,95.438,541.011,538.524,0.0
51759.0,STARLINK-3456,PAYLOAD,2024-03-08 02:25:59,15.08837345,0.0001523,53.2193,353.3478,85.4613,274.6553,4.624e-05,4.48e-06,0.0,0 STARLINK-3456,1 51759U 22016AX  24068.10138446  .00000448  00000-0  46240-4 0  9991,2 51759  53.2193 353.3478 0001523  85.4613 274.6553 15.08837345114409,6917.889,95.438,540.807,538.7,0.0
51759.0,STARLINK-3456,PAYLOAD,2024-03-09 02:16:45,15.08848562,0.000162,53.2197,348.8876,80.7906,279.327,9.107e-05,1.162e-05,0.0,0 STARLINK-3456,1 51759U 22016AX  24069.09497495  .00001162  00000-0  91070-4 0  9997,2 51759  53.2197 348.8876 0001620  80.7906 279.3270 15.08848562114552,6917.854,95.437,540.84,538.599,0.0
51759.0,STARLINK-3456,PAYLOAD,2024-03-09 11:49:04,15.08852062,0.0001555,53.2194,347.105,86.791,273.326,-4.507e-05,-1.005e-05,0.0,0 STARLINK-3456,1 51759U 22016AX  24069.49241452 -.00001005  00000-0 -45070-4 0  9998,2 51759  53.2194 347.1050 0001555  86.7910 273.3260 15.08852062113476,6917.844,95.437,540.784,538.633,0.0
51759.0,STARLINK-3456,PAYLOAD,2024-03-09 18:10:37,15.08837505,0.0001672,53.2173,345.9159,93.4502,266.6682,7.9385e-05,9.76e-06,0.0,0 STARLINK-3456,1 51759U 22016AX  24069.75738153  .00000976  00000-0  79385-4 0  9996,2 51759  53.2173 345.9159 0001672  93.4502 266.6682 15.08837505114650,6917.888,95.438,540.91,538.596,0.0
51759.0,STARLINK-3456,PAYLOAD,2024-03-10 03:42:55,15.08849743,0.0001568,53.2194,344.1312,98.6813,261.4356,6.5668e-05,7.58e-06,0.0,0 STARLINK-3456,1 51759U 22016AX  24070.15481236  .00000758  00000-0  65668-4 0  9996,2 51759  53.2194 344.1312 0001568  98.6813 261.4356 15.08849743114716,6917.851,95.437,540.8,538.631,0.0
51759.0,STARLINK-3456,PAYLOAD,2024-03-10 11:39:52,15.08837343,0.0001527,53.2196,342.6435,93.4339,266.6828,-4.3826e-05,-9.85e-06,0.0,0 STARLINK-3456,1 51759U 22016AX  24070.48602286 -.00000985  00000-0 -43826-4 0  9998,2 51759  53.2196 342.6435 0001527  93.4339 266.6828 15.08837343114767,6917.889,95.438,540.81,538.697,0.0
51759.0,STARLINK-3456,PAYLOAD,2024-03-10 22:47:34,15.08842244,0.0001326,53.2189,340.5624,96.4001,263.7142,-8.4215e-05,-1.628e-05,0.0,0 STARLINK-3456,1 51759U 22016AX  24070.94970078 -.00001628  00000-0 -84215-4 0  9998,2 51759  53.2189 340.5624 0001326  96.4001 263.7142 15.08842244113696,6917.874,95.437,540.656,538.821,0.0
51759.0,STARLINK-3456,PAYLOAD,2024-03-11 03:33:43,15.0884791,0.0001573,53.2192,339.6693,95.9442,264.173,-2.6352e-05,-7.07e-06,0.0,0 STARLINK-3456,1 51759U 22016AX  24071.14841526 -.00000707  00000-0 -26352-4 0  9991,2 51759  53.2192 339.6693 0001573  95.9442 264.1730 15.08847910114865,6917.856,95.437,540.809,538.633,0.0
51759.0,STARLINK-3456,PAYLOAD,2024-03-12 03:24:30,15.08840044,0.0001592,53.2188,335.2074,112.6996,247.4165,3.1673e-05,2.16e-06,0.0,0 STARLINK-3456,1 51759U 22016AX  24072.14201769  .00000216  00000-0  31673-4 0  9996,2 51759  53.2188 335.2074 0001592 112.6996 247.4165 15.08840044115012,6917.88,95.438,540.847,538.644,0.0
51759.0,STARLINK-3456,PAYLOAD,2024-03-13 03:15:17,15.08836724,0.0001336,53.2179,330.7477,87.2106,272.9039,1.3121e-05,-7.9e-07,0.0,0 STARLINK-3456,1 51759U 22016AX  24073.13562305 -.00000079  00000-0  13121-4 0  9998,2 51759  53.2179 330.7477 0001336  87.2106 272.9039 15.08836724115164,6917.89,95.438,540.68,538.831,0.0
